IRIDIUM 112             
1 41925U 17003J   25292.15308280  .00000127  00000+0  38208-4 0  9993
2 41925  86.4028 188.9945 0002220  87.2871 272.8579 14.34218019458723
IRIDIUM 111             
1 41926U 17003K   25292.21016411  .00000535  00000+0  18393-3 0  9998
2 41926  86.4035 189.0360 0002200  80.9790 279.1655 14.34219862458714
IRIDIUM 113             
1 42803U 17039A   25292.32966527  .00000395  00000+0  13409-3 0  9993
2 42803  86.3960  62.8332 0002196  93.7316 266.4131 14.34220114436662
IRIDIUM 123             
1 42804U 17039B   25292.16183878  .00000054  00000+0  12315-4 0  9994
2 42804  86.3918  94.4025 0002135  81.6346 278.5092 14.34217889435404
IRIDIUM 120             
1 42805U 17039C   25292.32332273  .00000640  00000+0  22142-3 0  9997
2 42805  86.3947  62.6492 0001723  90.6760 269.4633 14.34219310436653
IRIDIUM 115             
1 42806U 17039D   25292.12458237  .00000777  00000+0  22514-3 0  9999
2 42806  86.4484  62.8280 0002009  75.6694 284.4730 14.43280095439493
IRIDIUM 118             
1 42807U 17039E   25291.98424677  .00000033  00000+0  46555-5 0  9992
2 42807  86.3917  94.4760 0002287  92.9457 267.2001 14.34217753435379
IRIDIUM 117             
1 42808U 17039F   25292.21257985  .00000091  00000+0  25464-4 0  9995
2 42808  86.3916  94.3402 0002189  84.6299 275.5146 14.34218069435434
